TRANSPORTER-12 OBJECT AZ
1 62656U 25009AZ  26068.71026235  .00016057  00000+0  54903-3 0  9991
2 62656  97.3981 151.9913 0000987  45.3581 314.7740 15.30349724 63792
STARLINK-34295          
1 64455U 25130T   26068.31944634  .00018585  00000+0  63795-3 0  9990
2 64455  53.1599  90.4461 0000947  66.4686 293.6414 15.30204072 40645
